STARLINK-11539 [DTC]    
1 62987U 25031G   25202.37884789  .00275924  00000+0  20691-2 0  9996
2 62987  43.0004 315.6871 0002617 258.9413 101.1160 15.71001638 26363
STARLINK-11542 [DTC]    
1 62988U 25031H   25202.36292041  .00237924  00000+0  18008-2 0  9997
2 62988  42.9994 315.5583 0001821 263.6778  96.3882 15.70896934 26199
STARLINK-11573 [DTC]    
1 62989U 25031J   25202.33119319  .00207018  00000+0  15692-2 0  9998
2 62989  42.9976 316.1973 0000959 254.8568 105.2193 15.70957827 26295
STARLINK-11572 [DTC]    
1 62990U 25031K   25202.36913965  .00204278  00000+0  15495-2 0  9998
2 62990  43.0006 315.6068 0002331 253.0659 106.9953 15.70949206 26362
STARLINK-11583 [DTC]    
1 62991U 25031L   25202.33650175  .00161715  00000+0  12387-2 0  9992
2 62991  43.0035 316.2389 0002361 257.9016 102.1587 15.70852598 26358
STARLINK-11570 [DTC]    
1 62992U 25031M   25202.34181024  .00152122  00000+0  11666-2 0  9997
2 62992  43.0033 316.2820 0002248 264.7831  95.2781 15.70856391 26344
STARLINK-11576 [DTC]    
1 62993U 25031N   25202.32588459  .00150516  00000+0  11513-2 0  9995
2 62993  42.9960 316.1514 0000688 301.0010  59.0790 15.70924353 26343
STARLINK-32899          
1 62994U 25031P   25202.43658484  .00024588  00000+0  89926-3 0  9997
2 62994  42.9955   9.7124 0000383 228.3288 131.7531 15.27608166 25691
STARLINK-32819          
1 62995U 25031Q   25202.46856397  .00015335  00000+0  56550-3 0  9991
2 62995  42.9991   9.0865 0001615 260.6603  99.4066 15.27586823 25694
STARLINK-32703          
1 62996U 25031R   25201.51603541  .00006474  00000+0  24455-3 0  9991
2 62996  42.9987  14.8458 0000806 273.7911  86.2848 15.27584029 25586
STARLINK-32881          
1 62997U 25031S   25202.45828441  .00019811  00000+0  72731-3 0  9993
2 62997  43.0038   9.0098 0000858 258.0515 102.0241 15.27589466 25703
STARLINK-32898          
1 62998U 25031T   25202.16347580  .00021087  00000+0  77346-3 0  9997
2 62998  43.0003  11.1017 0001798 279.7206  80.3443 15.27586290 25650
STARLINK-32658          
1 62999U 25031U   25202.46213601  .00015521  00000+0  57218-3 0  9999
2 62999  43.0038   9.0386 0001433 236.1926 123.8789 15.27589466 25694
STARLINK-32673          
1 63000U 25031V   25202.48012907  .00015582  00000+0  57445-3 0  9990
2 63000  43.0000   9.1788 0001206 261.5936  98.4779 15.27585517 25706
STARLINK-32437          
1 63001U 25031W   25202.44044246  .00023499  00000+0  86052-3 0  9990
2 63001  43.0037   9.7429 0000427   0.2988 359.7864 15.27588572 25694
STARLINK-11448 [DTC]    
1 63005U 25032A   25202.22025699  .00118582  00000+0  91341-3 0  9997
2 63005  43.0001 150.2088 0001774 273.4430  86.6234 15.70868130 25803
STARLINK-11553 [DTC]    
1 63006U 25032B   25202.20976504  .00184343  00000+0  14035-2 0  9998
2 63006  43.0023 151.0194 0002851 269.5612  90.4929 15.70922609 25794
STARLINK-11526 [DTC]    
1 63007U 25032C   25202.21494875  .00083423  00000+0  64691-3 0  9997
2 63007  42.9990 150.1653 0001386 271.7135  88.3574 15.70847860 25802
STARLINK-11405 [DTC]    
1 63008U 25032D   25202.26364296  .00149403  00000+0  11456-2 0  9997
2 63008  42.9996 150.5570 0001452 267.9633  92.1068 15.70869532 25648
STARLINK-11586 [DTC]    
1 63009U 25032E   25202.18321720  .00270119  00000+0  20217-2 0  9998
2 63009  42.9997 150.8041 0003485 257.8367 102.2111 15.71062886 25804
STARLINK-11574 [DTC]    
1 63010U 25032F   25202.19383438  .00189487  00000+0  14394-2 0  9991
2 63010  42.9997 150.8886 0003539 255.1387 104.9089 15.70958168 25793
STARLINK-11580 [DTC]    
1 63011U 25032G   25202.23087162  .00203631  00000+0  15449-2 0  9992
2 63011  42.9989 150.2915 0003240 253.8485 106.2026 15.70944412 25596
STARLINK-11449 [DTC]    
1 63012U 25032H   25202.24149529  .00155088  00000+0  11893-2 0  9991
2 63012  42.9992 150.3773 0001693 260.5055  99.5621 15.70848011 25809
STARLINK-11577 [DTC]    
1 63013U 25032J   25201.23477769  .00212873  00000+0  16144-2 0  9990
2 63013  43.0017 156.5952 0003063 267.2951  92.7566 15.70925216 25658
STARLINK-11578 [DTC]    
1 63014U 25032K   25202.20445508  .00146964  00000+0  11252-2 0  9997
2 63014  43.0011 150.9713 0002693 261.6225  98.4338 15.70911681 25770
STARLINK-11541 [DTC]    
1 63015U 25032L   25202.16198324  .00181401  00000+0  13815-2 0  9996
2 63015  43.0002 150.6302 0001637 249.3332 110.7360 15.70927050 25793
STARLINK-11545 [DTC]    
1 63016U 25032M   25202.23618270  .00241701  00000+0  18179-2 0  9990
2 63016  42.9998 150.3321 0003243 264.1603  95.8895 15.71033224 25805
STARLINK-11400 [DTC]    
1 63017U 25032N   25202.19914317  .00147331  00000+0  11310-2 0  9991
2 63017  42.9993 150.9294 0002391 256.8192 103.2409 15.70847899 25793
STARLINK-32870          
1 63018U 25032P   25202.38173631  .00011514  00000+0  42692-3 0  9990
2 63018  43.0018 202.4205 0001427 267.7649  92.3039 15.27607033 25249
STARLINK-32872          
1 63019U 25032Q   25202.07664934  .00013420  00000+0  49612-3 0  9995
2 63019  42.9990 204.4345 0001290 249.0077 111.0637 15.27591299 25193
