OBJECT_NAME,OBJECT_ID,EPOCH,MEAN_MOTION,ECCENTRICITY,INCLINATION,RA_OF_ASC_NODE,ARG_OF_PERICENTER,MEAN_ANOMALY,EPHEMERIS_TYPE,CLASSIFICATION_TYPE,NORAD_CAT_ID,ELEMENT_SET_NO,REV_AT_EPOCH,BSTAR,MEAN_MOTION_DOT,MEAN_MOTION_DDOT
STARLINK-11539 [DTC],2025-031G,2025-07-21T09:05:32.457696,15.71001638,0.0002617,43.0004,315.6871,258.9413,101.116,0,U,62987,999,2636,2.07E-03,2.76E-03,0
STARLINK-11542 [DTC],2025-031H,2025-07-21T08:42:36.323424,15.70896934,0.0001821,42.9994,315.5583,263.6778,96.3882,0,U,62988,999,2619,1.80E-03,2.38E-03,0
STARLINK-11573 [DTC],2025-031J,2025-07-21T07:56:55.091616,15.70957827,0.0000959,42.9976,316.1973,254.8568,105.2193,0,U,62989,999,2629,1.57E-03,2.07E-03,0
STARLINK-11572 [DTC],2025-031K,2025-07-21T08:51:33.665760,15.70949206,0.0002331,43.0006,315.6068,253.0659,106.9953,0,U,62990,999,2636,1.55E-03,2.04E-03,0
STARLINK-11583 [DTC],2025-031L,2025-07-21T08:04:33.751200,15.70852598,0.0002361,43.0035,316.2389,257.9016,102.1587,0,U,62991,999,2635,1.24E-03,1.62E-03,0
STARLINK-11570 [DTC],2025-031M,2025-07-21T08:12:12.404736,15.70856391,0.0002248,43.0033,316.282,264.7831,95.2781,0,U,62992,999,2634,1.17E-03,1.52E-03,0
STARLINK-11576 [DTC],2025-031N,2025-07-21T07:49:16.428576,15.70924353,0.0000688,42.996,316.1514,301.001,59.079,0,U,62993,999,2634,1.15E-03,1.51E-03,0
STARLINK-32899,2025-031P,2025-07-21T10:28:40.930176,15.27608166,0.0000383,42.9955,9.7124,228.3288,131.7531,0,U,62994,999,2569,8.99E-04,2.46E-04,0
STARLINK-32819,2025-031Q,2025-07-21T11:14:43.927008,15.27586823,0.0001615,42.9991,9.0865,260.6603,99.4066,0,U,62995,999,2569,5.66E-04,1.53E-04,0
STARLINK-32703,2025-031R,2025-07-20T12:23:05.459424,15.27584029,0.0000806,42.9987,14.8458,273.7911,86.2848,0,U,62996,999,2558,2.45E-04,6.47E-05,0
STARLINK-32881,2025-031S,2025-07-21T10:59:55.773024,15.27589466,0.0000858,43.0038,9.0098,258.0515,102.0241,0,U,62997,999,2570,7.27E-04,1.98E-04,0
STARLINK-32898,2025-031T,2025-07-21T03:55:24.309120,15.2758629,0.0001798,43.0003,11.1017,279.7206,80.3443,0,U,62998,999,2565,7.73E-04,2.11E-04,0
STARLINK-32658,2025-031U,2025-07-21T11:05:28.551264,15.27589466,0.0001433,43.0038,9.0386,236.1926,123.8789,0,U,62999,999,2569,5.72E-04,1.55E-04,0
STARLINK-32673,2025-031V,2025-07-21T11:31:23.151648,15.27585517,0.0001206,43,9.1788,261.5936,98.4779,0,U,63000,999,2570,5.74E-04,1.56E-04,0
STARLINK-32437,2025-031W,2025-07-21T10:34:14.228544,15.27588572,0.0000427,43.0037,9.7429,0.2988,359.7864,0,U,63001,999,2569,8.61E-04,2.35E-04,0
STARLINK-11448 [DTC],2025-032A,2025-07-21T05:17:10.203936,15.7086813,0.0001774,43.0001,150.2088,273.443,86.6234,0,U,63005,999,2580,9.13E-04,1.19E-03,0
STARLINK-11553 [DTC],2025-032B,2025-07-21T05:02:03.699456,15.70922609,0.0002851,43.0023,151.0194,269.5612,90.4929,0,U,63006,999,2579,1.40E-03,1.84E-03,0
STARLINK-11526 [DTC],2025-032C,2025-07-21T05:09:31.572000,15.7084786,0.0001386,42.999,150.1653,271.7135,88.3574,0,U,63007,999,2580,6.47E-04,8.34E-04,0
STARLINK-11405 [DTC],2025-032D,2025-07-21T06:19:38.751744,15.70869532,0.0001452,42.9996,150.557,267.9633,92.1068,0,U,63008,999,2564,1.15E-03,1.49E-03,0
STARLINK-11586 [DTC],2025-032E,2025-07-21T04:23:49.966080,15.71062886,0.0003485,42.9997,150.8041,257.8367,102.2111,0,U,63009,999,2580,2.02E-03,2.70E-03,0
STARLINK-11574 [DTC],2025-032F,2025-07-21T04:39:07.290432,15.70958168,0.0003539,42.9997,150.8886,255.1387,104.9089,0,U,63010,999,2579,1.44E-03,1.89E-03,0
STARLINK-11580 [DTC],2025-032G,2025-07-21T05:32:27.307968,15.70944412,0.000324,42.9989,150.2915,253.8485,106.2026,0,U,63011,999,2559,1.54E-03,2.04E-03,0
STARLINK-11449 [DTC],2025-032H,2025-07-21T05:47:45.193056,15.70848011,0.0001693,42.9992,150.3773,260.5055,99.5621,0,U,63012,999,2580,1.19E-03,1.55E-03,0
STARLINK-11577 [DTC],2025-032J,2025-07-20T05:38:04.792416,15.70925216,0.0003063,43.0017,156.5952,267.2951,92.7566,0,U,63013,999,2565,1.61E-03,2.13E-03,0
STARLINK-11578 [DTC],2025-032K,2025-07-21T04:54:24.918912,15.70911681,0.0002693,43.0011,150.9713,261.6225,98.4338,0,U,63014,999,2577,1.13E-03,1.47E-03,0
STARLINK-11541 [DTC],2025-032L,2025-07-21T03:53:15.351936,15.7092705,0.0001637,43.0002,150.6302,249.3332,110.736,0,U,63015,999,2579,1.38E-03,1.81E-03,0
STARLINK-11545 [DTC],2025-032M,2025-07-21T05:40:06.185280,15.71033224,0.0003243,42.9998,150.3321,264.1603,95.8895,0,U,63016,999,2580,1.82E-03,2.42E-03,0
STARLINK-11400 [DTC],2025-032N,2025-07-21T04:46:45.969888,15.70847899,0.0002391,42.9993,150.9294,256.8192,103.2409,0,U,63017,999,2579,1.13E-03,1.47E-03,0
STARLINK-32870,2025-032P,2025-07-21T09:09:42.017184,15.27607033,0.0001427,43.0018,202.4205,267.7649,92.3039,0,U,63018,999,2524,4.27E-04,1.15E-04,0
STARLINK-32872,2025-032Q,2025-07-21T01:50:22.502976,15.27591299,0.000129,42.999,204.4345,249.0077,111.0637,0,U,63019,999,2519,4.96E-04,1.34E-04,0
